2022-023A               
1 51946U 22023A   26066.38437076  .00004303  00000+0  19500-3 0  9999
2 51946  63.4765 256.0240 0098533 341.4326  18.3199 15.18202647222269
STARLINK-32251          
1 60940U 24155S   26068.45445810  .00001487  00000+0  62327-4 0  9992
2 60940  53.1599 130.8472 0001165  85.1457 274.9676 15.30187692 86301
